[{"OBJECT_NAME":"STARLINK-33812","OBJECT_ID":"2025-094R","EPOCH":"2026-03-09T21:25:27.600384","MEAN_MOTION":14.98334071,"ECCENTRICITY":0.00028544,"INCLINATION":70.002,"RA_OF_ASC_NODE":233.9336,"ARG_OF_PERICENTER":271.538,"MEAN_ANOMALY":88.5453,"EPHEMERIS_TYPE":0,"CLASSIFICATION_TYPE":"U","NORAD_CAT_ID":63879,"ELEMENT_SET_NO":999,"REV_AT_EPOCH":4723,"BSTAR":0.00019921278,"MEAN_MOTION_DOT":2.285e-5,"MEAN_MOTION_DDOT":0},{"OBJECT_NAME":"FENGYUN 1C DEB","OBJECT_ID":"1999-025EJU","EPOCH":"2026-02-26T20:11:02.200416","MEAN_MOTION":14.76820792,"ECCENTRICITY":0.0127498,"INCLINATION":99.1634,"RA_OF_ASC_NODE":278.149,"ARG_OF_PERICENTER":258.5062,"MEAN_ANOMALY":100.1804,"EPHEMERIS_TYPE":0,"CLASSIFICATION_TYPE":"U","NORAD_CAT_ID":37474,"ELEMENT_SET_NO":999,"REV_AT_EPOCH":63498,"BSTAR":0.0012932,"MEAN_MOTION_DOT":0.00010319,"MEAN_MOTION_DDOT":0}]
